[{"OBJECT_NAME":"STARLINK-5499","OBJECT_ID":"2023-028Z","EPOCH":"2026-03-09T20:22:13.301184","MEAN_MOTION":14.98331604,"ECCENTRICITY":0.00025139,"INCLINATION":70.0001,"RA_OF_ASC_NODE":224.1861,"ARG_OF_PERICENTER":277.4306,"MEAN_ANOMALY":82.6567,"EPHEMERIS_TYPE":0,"CLASSIFICATION_TYPE":"U","NORAD_CAT_ID":55764,"ELEMENT_SET_NO":999,"REV_AT_EPOCH":16655,"BSTAR":1.602232e-6,"MEAN_MOTION_DOT":-7.4e-7,"MEAN_MOTION_DDOT":0},{"OBJECT_NAME":"FENGYUN 1C DEB","OBJECT_ID":"1999-025DXL","EPOCH":"2026-02-25T04:10:22.321344","MEAN_MOTION":15.11307044,"ECCENTRICITY":0.00591738,"INCLINATION":99.4273,"RA_OF_ASC_NODE":43.0945,"ARG_OF_PERICENTER":165.3437,"MEAN_ANOMALY":194.9519,"EPHEMERIS_TYPE":0,"CLASSIFICATION_TYPE":"U","NORAD_CAT_ID":36283,"ELEMENT_SET_NO":999,"REV_AT_EPOCH":67788,"BSTAR":0.0012995165,"MEAN_MOTION_DOT":0.00022794,"MEAN_MOTION_DDOT":0}]
